NORAD_CAT_ID,OBJECT_NAME,OBJECT_TYPE,EPOCH,MEAN_MOTION,ECCENTRICITY,INCLINATION,RA_OF_ASC_NODE,ARG_OF_PERICENTER,MEAN_ANOMALY,BSTAR,MEAN_MOTION_DOT,MEAN_MOTION_DDOT,TLE_LINE0,TLE_LINE1,TLE_LINE2,SEMIMAJOR_AXIS,PERIOD,APOGEE,PERIGEE,DECAYED
50830.0,STARLINK-3278,PAYLOAD,2023-09-04 16:32:07,15.08825073,0.0001443,53.2179,335.6977,73.4502,286.6648,-0.00027585,-4.674e-05,0.0,0 STARLINK-3278,1 50830U 22001AD  23247.68897829 -.00004674  00000-0 -27585-3 0  9999,2 50830  53.2179 335.6977 0001443  73.4502 286.6648 15.08825073 93100,6917.926,95.438,540.789,538.793,0.0
50830.0,STARLINK-3278,PAYLOAD,2023-09-04 22:53:40,15.08828525,0.0001486,53.2185,334.5084,76.1671,283.9486,-0.00018225,-3.186e-05,0.0,0 STARLINK-3278,1 50830U 22001AD  23247.95393993 -.00003186  00000-0 -18225-3 0  9990,2 50830  53.2185 334.5084 0001486  76.1671 283.9486 15.08828525 91875,6917.915,95.438,540.808,538.752,0.0
50830.0,STARLINK-3278,PAYLOAD,2023-09-05 22:44:26,15.0884731,0.0001412,53.2183,330.0481,87.4993,272.6161,0.00013595,1.877e-05,0.0,0 STARLINK-3278,1 50830U 22001AD  23248.94753317  .00001877  00000-0  13595-3 0  9998,2 50830  53.2183 330.0481 0001412  87.4993 272.6161 15.08847310 93292,6917.858,95.437,540.7,538.746,0.0
50830.0,STARLINK-3278,PAYLOAD,2023-09-06 17:49:04,15.08847003,0.0001024,53.2162,326.477,95.5162,264.5947,0.0002871,4.285e-05,0.0,0 STARLINK-3278,1 50830U 22001AD  23249.74241334  .00004285  00000-0  28710-3 0  9999,2 50830  53.2162 326.4770 0001024  95.5162 264.5947 15.08847003 92140,6917.859,95.437,540.432,539.016,0.0
50830.0,STARLINK-3278,PAYLOAD,2023-09-07 09:42:56,15.08835816,0.000106,53.217,323.5016,97.2128,262.8984,-0.00012668,-2.303e-05,0.0,0 STARLINK-3278,1 50830U 22001AD  23250.40481980 -.00002303  00000-0 -12668-3 0  9993,2 50830  53.2170 323.5016 0001060  97.2128 262.8984 15.08835816 92243,6917.893,95.438,540.491,539.025,0.0
50830.0,STARLINK-3278,PAYLOAD,2023-09-07 16:04:29,15.08843167,0.0001592,53.2177,322.3134,75.6215,284.4954,3.1292e-05,2.1e-06,0.0,0 STARLINK-3278,1 50830U 22001AD  23250.66978026  .00000210  00000-0  31292-4 0  9991,2 50830  53.2177 322.3134 0001592  75.6215 284.4954 15.08843167 93555,6917.871,95.437,540.837,538.634,0.0
50830.0,STARLINK-3278,PAYLOAD,2023-09-08 11:09:06,15.08804753,0.0001599,53.2181,318.7468,73.8124,286.3044,0.00066306,0.0001027,0.0,0 STARLINK-3278,1 50830U 22001AD  23251.46465969  .00010270  00000-0  66306-3 0  9997,2 50830  53.2181 318.7468 0001599  73.8124 286.3044 15.08804753 93677,6917.988,95.44,540.959,538.747,0.0
50830.0,STARLINK-3278,PAYLOAD,2023-09-08 15:55:15,15.08815404,0.0001393,53.218,317.8536,87.1782,272.9369,0.00066124,0.00010244,0.0,0 STARLINK-3278,1 50830U 22001AD  23251.66337777  .00010244  00000-0  66124-3 0  9993,2 50830  53.2180 317.8536 0001393  87.1782 272.9369 15.08815404 93702,6917.956,95.439,540.784,538.857,0.0
50830.0,STARLINK-3278,PAYLOAD,2023-09-09 10:59:53,15.08843875,0.0001348,53.2181,314.2854,81.7732,278.3413,7.1348e-05,8.48e-06,0.0,0 STARLINK-3278,1 50830U 22001AD  23252.45825701  .00000848  00000-0  71348-4 0  9994,2 50830  53.2181 314.2854 0001348  81.7732 278.3413 15.08843875 93828,6917.869,95.437,540.666,538.801,0.0
50830.0,STARLINK-3278,PAYLOAD,2023-09-09 20:32:13,15.08833956,0.0002041,53.2182,312.502,68.1007,292.0202,-5.5543e-06,-3.77e-06,0.0,0 STARLINK-3278,1 50830U 22001AD  23252.85570737 -.00000377  00000-0 -55543-5 0  9993,2 50830  53.2182 312.5020 0002041  68.1007 292.0202 15.08833956 93884,6917.899,95.438,541.176,538.352,0.0
50830.0,STARLINK-3278,PAYLOAD,2023-09-10 09:15:17,15.08845487,0.0001403,53.2177,310.1208,101.1194,258.9956,7.7278e-05,9.42e-06,0.0,0 STARLINK-3278,1 50830U 22001AD  23253.38561584  .00000942  00000-0  77278-4 0  9996,2 50830  53.2177 310.1208 0001403 101.1194 258.9956 15.08845487 93964,6917.864,95.437,540.699,538.758,0.0
50830.0,STARLINK-3278,PAYLOAD,2023-09-10 20:22:59,15.08837459,0.0001381,53.2183,308.0403,88.4413,271.6738,-2.1868e-05,-6.36e-06,0.0,0 STARLINK-3278,1 50830U 22001AD  23253.84930312 -.00000636  00000-0 -21868-4 0  9992,2 50830  53.2183 308.0403 0001381  88.4413 271.6738 15.08837459 94039,6917.888,95.438,540.709,538.798,0.0
50830.0,STARLINK-3278,PAYLOAD,2023-09-11 12:16:51,15.08841556,0.0001308,53.2172,305.0685,92.0947,268.0195,3.501e-05,2.69e-06,0.0,0 STARLINK-3278,1 50830U 22001AD  23254.51170221  .00000269  00000-0  35010-4 0  9996,2 50830  53.2172 305.0685 0001308  92.0947 268.0195 15.08841556 92867,6917.876,95.437,540.645,538.836,0.0
50830.0,STARLINK-3278,PAYLOAD,2023-09-11 23:24:32,15.08838128,0.0001296,53.2168,302.9873,91.5057,268.6084,0.00014558,2.03e-05,0.0,0 STARLINK-3278,1 50830U 22001AD  23254.97538175  .00002030  00000-0  14558-3 0  9993,2 50830  53.2168 302.9873 0001296  91.5057 268.6084 15.08838128 94203,6917.886,95.438,540.648,538.855,0.0
50830.0,STARLINK-3278,PAYLOAD,2023-09-12 12:07:37,15.08848693,0.0001424,53.2165,300.6091,99.1962,260.9191,0.00027773,4.136e-05,0.0,0 STARLINK-3278,1 50830U 22001AD  23255.50529773  .00004136  00000-0  27773-3 0  9999,2 50830  53.2165 300.6091 0001424  99.1962 260.9191 15.08848693 93019,6917.854,95.437,540.704,538.734,0.0
50830.0,STARLINK-3278,PAYLOAD,2023-09-12 15:18:23,15.08852185,0.0001385,53.2163,300.0146,97.7807,262.3343,0.00033502,5.05e-05,0.0,0 STARLINK-3278,1 50830U 22001AD  23255.63777630  .00005050  00000-0  33502-3 0  9993,2 50830  53.2163 300.0146 0001385  97.7807 262.3343 15.08852185 94309,6917.843,95.437,540.666,538.75,0.0
50830.0,STARLINK-3278,PAYLOAD,2023-09-13 10:23:01,15.08848152,0.0001556,53.2161,296.446,76.0445,284.072,0.00024854,3.671e-05,0.0,0 STARLINK-3278,1 50830U 22001AD  23256.43265925  .00003671  00000-0  24854-3 0  9998,2 50830  53.2161 296.4460 0001556  76.0445 284.0720 15.08848152 94424,6917.855,95.437,540.797,538.644,0.0
50830.0,STARLINK-3278,PAYLOAD,2023-09-13 19:55:20,15.08838148,0.000144,53.2156,294.6618,88.3522,271.7635,5.0878e-05,5.22e-06,0.0,0 STARLINK-3278,1 50830U 22001AD  23256.83010182  .00000522  00000-0  50878-4 0  9993,2 50830  53.2156 294.6618 0001440  88.3522 271.7635 15.08838148 93215,6917.886,95.438,540.747,538.755,0.0
50830.0,STARLINK-3278,PAYLOAD,2023-09-14 10:13:50,15.08825243,0.0001548,53.2158,291.9853,88.7147,271.4022,-0.00011431,-2.106e-05,0.0,0 STARLINK-3278,1 50830U 22001AD  23257.42627503 -.00002106  00000-0 -11431-3 0  9993,2 50830  53.2158 291.9853 0001548  88.7147 271.4022 15.08825243 94573,6917.925,95.438,540.861,538.72,0.0
50830.0,STARLINK-3278,PAYLOAD,2023-09-14 11:49:13,15.0882905,0.0001461,53.2159,291.6864,92.2141,267.9018,-0.00010484,-1.956e-05,0.0,0 STARLINK-3278,1 50830U 22001AD  23257.49251290 -.00001956  00000-0 -10484-3 0  9995,2 50830  53.2159 291.6864 0001461  92.2141 267.9018 15.08829050 93317,6917.914,95.438,540.79,538.768,0.0
50830.0,STARLINK-3278,PAYLOAD,2023-09-14 19:46:08,15.08832374,0.0001344,53.2159,290.1991,97.6446,262.4699,-2.4312e-05,-6.75e-06,0.0,0 STARLINK-3278,1 50830U 22001AD  23257.82371299 -.00000675  00000-0 -24312-4 0  9997,2 50830  53.2159 290.1991 0001344  97.6446 262.4699 15.08832374 93362,6917.904,95.438,540.698,538.839,0.0
50830.0,STARLINK-3278,PAYLOAD,2023-09-15 02:07:41,15.08833674,0.0001464,53.2159,289.0098,93.0542,267.0618,0.00013115,1.8e-05,0.0,0 STARLINK-3278,1 50830U 22001AD  23258.08867474  .00001800  00000-0  13115-3 0  9998,2 50830  53.2159 289.0098 0001464  93.0542 267.0618 15.08833674 94678,6917.9,95.438,540.778,538.752,0.0
50830.0,STARLINK-3278,PAYLOAD,2023-09-15 08:29:13,15.08842972,0.0001365,53.2154,287.8208,91.5088,268.6061,0.00016352,2.316e-05,0.0,0 STARLINK-3278,1 50830U 22001AD  23258.35363102  .00002316  00000-0  16352-3 0  9996,2 50830  53.2154 287.8208 0001365  91.5088 268.6061 15.08842972 93444,6917.871,95.437,540.681,538.792,0.0
50830.0,STARLINK-3278,PAYLOAD,2023-09-16 08:20:00,15.08854762,0.0001414,53.2148,283.3602,90.2608,269.8546,0.00051532,7.926e-05,0.0,0 STARLINK-3278,1 50830U 22001AD  23259.34723119  .00007926  00000-0  51532-3 0  9995,2 50830  53.2148 283.3602 0001414  90.2608 269.8546 15.08854762 94863,6917.835,95.437,540.678,538.722,0.0
50830.0,STARLINK-3278,PAYLOAD,2023-09-16 11:30:46,15.0885655,0.0001432,53.2147,282.7652,90.2935,269.8221,0.00046512,7.125e-05,0.0,0 STARLINK-3278,1 50830U 22001AD  23259.47970933  .00007125  00000-0  46512-3 0  9990,2 50830  53.2147 282.7652 0001432  90.2935 269.8221 15.08856550 93612,6917.83,95.437,540.685,538.704,0.0
50830.0,STARLINK-3278,PAYLOAD,2023-09-17 01:49:15,15.08848953,0.0001533,53.2155,280.0895,84.4974,275.6193,0.00019257,2.779e-05,0.0,0 STARLINK-3278,1 50830U 22001AD  23260.07586888  .00002779  00000-0  19257-3 0  9996,2 50830  53.2155 280.0895 0001533  84.4974 275.6193 15.08848953 94972,6917.853,95.437,540.779,538.658,0.0
50830.0,STARLINK-3278,PAYLOAD,2023-09-17 11:21:33,15.08855449,0.0001512,53.2158,278.3052,87.2626,272.8539,0.00026324,3.906e-05,0.0,0 STARLINK-3278,1 50830U 22001AD  23260.47330573  .00003906  00000-0  26324-3 0  9994,2 50830  53.2158 278.3052 0001512  87.2626 272.8539 15.08855449 93769,6917.833,95.437,540.744,538.652,0.0
50830.0,STARLINK-3278,PAYLOAD,2023-09-18 06:26:11,15.08843532,0.0001494,53.2157,274.7351,97.4935,262.6227,2.8263e-05,1.62e-06,0.0,0 STARLINK-3278,1 50830U 22001AD  23261.26818763  .00000162  00000-0  28263-4 0  9990,2 50830  53.2157 274.7351 0001494  97.4935 262.6227 15.08843532 95151,6917.87,95.437,540.768,538.701,0.0
50830.0,STARLINK-3278,PAYLOAD,2023-09-18 12:47:43,15.08848199,0.0001518,53.216,273.5455,101.0093,259.107,8.4015e-05,1.05e-05,0.0,0 STARLINK-3278,1 50830U 22001AD  23261.53314465  .00001050  00000-0  84015-4 0  9994,2 50830  53.2160 273.5455 0001518 101.0093 259.1070 15.08848199 93925,6917.855,95.437,540.77,538.67,0.0
50830.0,STARLINK-3278,PAYLOAD,2023-09-18 17:33:53,15.08843668,0.0001547,53.2165,272.6529,92.9067,267.2102,1.207e-05,-9.6e-07,0.0,0 STARLINK-3278,1 50830U 22001AD  23261.73186666 -.00000096  00000-0  12070-4 0  9998,2 50830  53.2165 272.6529 0001547  92.9067 267.2102 15.08843668 93958,6917.869,95.437,540.804,538.664,0.0
